KUIPER-00035            
1 63748U 25088AA  25352.60405435  .00005423  00000+0  74019-3 0  9992
2 63748  51.9000 112.6733 0006756 162.3604 197.7594 14.79902681 35506
KUIPER-00037            
1 63749U 25088AB  25353.33335648  .00065651  00000+0  86512-2 0  9991
2 63749  51.8996 108.4073 0001096  73.0608 199.2836 14.79470423  5703
KUIPER-00038            
1 63750U 25088AC  25353.29712133 -.00007276  00000+0 -92737-3 0  9994
2 63750  51.9027  93.5744 0007605 163.3014 196.8200 14.79861127 35612
KUIPER-00039            
1 64500U 25134A   25352.86462748  .00009404  00000+0  12602-2 0  9991
2 64500  51.9005 230.4916 0011436  23.7169 336.4318 14.79923571 28102
KUIPER-00040            
1 64501U 25134B   25353.18961119 -.00039747  00000+0 -52293-2 0  9999
2 64501  51.8992 240.2074 0017734   2.8914 357.2148 14.79699127 27999
KUIPER-00041            
1 64502U 25134C   25353.12105726  .00038043  00000+0  50181-2 0  9998
2 64502  51.8979 241.8615 0012346   0.4252 359.6719 14.79658171 27967
KUIPER-00042            
1 64503U 25134D   25353.12493460  .00003482  00000+0  48598-3 0  9993
2 64503  51.8991 237.8540 0012809  14.1076 346.0242 14.79876117 28025
KUIPER-00043            
1 64504U 25134E   25352.86283950 -.00001453  00000+0 -16152-3 0  9994
2 64504  51.9010 231.4586 0003831  31.4942 328.6249 14.79935272 28096
